NORAD_CAT_ID,OBJECT_NAME,OBJECT_TYPE,EPOCH,MEAN_MOTION,ECCENTRICITY,INCLINATION,RA_OF_ASC_NODE,ARG_OF_PERICENTER,MEAN_ANOMALY,BSTAR,MEAN_MOTION_DOT,MEAN_MOTION_DDOT,TLE_LINE0,TLE_LINE1,TLE_LINE2,SEMIMAJOR_AXIS,PERIOD,APOGEE,PERIGEE,DECAYED
49168.0,STARLINK-3101,PAYLOAD,2023-05-27 11:18:33,14.98309685,0.0003362,69.9989,319.2129,269.2959,90.7815,-0.00024941,-3.066e-05,0.0,0 STARLINK-3101,1 49168U 21082AQ  23147.47122036 -.00003066  00000-0 -24941-3 0  9993,2 49168  69.9989 319.2129 0003362 269.2959  90.7815 14.98309685 95303,6950.256,96.108,574.457,569.784,0.0
49168.0,STARLINK-3101,PAYLOAD,2023-05-27 20:55:22,14.98309969,0.0003285,69.9989,318.2031,268.6082,91.47,-0.00020232,-2.505e-05,0.0,0 STARLINK-3101,1 49168U 21082AQ  23147.87178357 -.00002505  00000-0 -20232-3 0  9990,2 49168  69.9989 318.2031 0003285 268.6082  91.4700 14.98309969 95360,6950.255,96.108,574.403,569.837,0.0
49168.0,STARLINK-3101,PAYLOAD,2023-05-28 04:56:02,14.98316512,0.0003431,69.9987,317.3607,270.1596,89.9169,-6.5325e-05,-8.72e-06,0.0,0 STARLINK-3101,1 49168U 21082AQ  23148.20557958 -.00000872  00000-0 -65325-4 0  9994,2 49168  69.9987 317.3607 0003431 270.1596  89.9169 14.98316512 95417,6950.235,96.108,574.484,569.715,0.0
49168.0,STARLINK-3101,PAYLOAD,2023-05-28 11:20:34,14.98318745,0.0003882,69.9985,316.6893,273.9475,86.124,-4.3771e-06,-1.45e-06,0.0,0 STARLINK-3101,1 49168U 21082AQ  23148.47261780 -.00000145  00000-0 -43771-5 0  9993,2 49168  69.9985 316.6893 0003882 273.9475  86.1240 14.98318745 95454,6950.228,96.108,574.791,569.395,0.0
49168.0,STARLINK-3101,PAYLOAD,2023-05-28 20:57:21,14.98329103,0.0003443,69.9986,315.6774,271.0115,89.065,0.00014632,1.653e-05,0.0,0 STARLINK-3101,1 49168U 21082AQ  23148.87316979  .00001653  00000-0  14632-3 0  9993,2 49168  69.9986 315.6774 0003443 271.0115  89.0650 14.98329103 95519,6950.196,96.107,574.454,569.668,0.0
49168.0,STARLINK-3101,PAYLOAD,2023-05-29 14:34:50,14.98329572,0.0003511,69.9983,313.8252,271.7239,88.3518,0.00038749,4.533e-05,0.0,0 STARLINK-3101,1 49168U 21082AQ  23149.60752405  .00004533  00000-0  38749-3 0  9998,2 49168  69.9983 313.8252 0003511 271.7239  88.3518 14.98329572 95624,6950.194,96.107,574.499,569.619,0.0
49168.0,STARLINK-3101,PAYLOAD,2023-05-29 17:47:05,14.98334468,0.0003547,69.9983,313.4886,271.8296,88.2457,0.00039479,4.621e-05,0.0,0 STARLINK-3101,1 49168U 21082AQ  23149.74104096  .00004621  00000-0  39479-3 0  9999,2 49168  69.9983 313.4886 0003547 271.8296  88.2457 14.98334468 95649,6950.179,96.107,574.509,569.579,0.0
49168.0,STARLINK-3101,PAYLOAD,2023-05-29 20:59:21,14.98336319,0.0003516,69.9981,313.152,271.1835,88.8921,0.00041018,4.805e-05,0.0,0 STARLINK-3101,1 49168U 21082AQ  23149.87456012  .00004805  00000-0  41018-3 0  9997,2 49168  69.9981 313.1520 0003516 271.1835  88.8921 14.98336319 95668,6950.173,96.107,574.482,569.595,0.0
49168.0,STARLINK-3101,PAYLOAD,2023-05-30 11:24:34,14.98351776,0.0003228,69.9983,311.6368,274.1643,85.9147,-0.00013024,-1.648e-05,0.0,0 STARLINK-3101,1 49168U 21082AQ  23150.47540108 -.00001648  00000-0 -13024-3 0  9995,2 49168  69.9983 311.6368 0003228 274.1643  85.9147 14.98351776 95755,6950.126,96.106,574.234,569.747,0.0
49168.0,STARLINK-3101,PAYLOAD,2023-05-30 21:01:23,14.98332533,0.0003274,69.9984,310.6267,270.2049,89.8735,0.00031255,3.638e-05,0.0,0 STARLINK-3101,1 49168U 21082AQ  23150.87596104  .00003638  00000-0  31255-3 0  9991,2 49168  69.9984 310.6267 0003274 270.2049  89.8735 14.98332533 95814,6950.185,96.107,574.326,569.775,0.0
49168.0,STARLINK-3101,PAYLOAD,2023-05-31 13:02:43,14.98342205,0.0003445,69.9987,308.9436,271.5033,88.5731,-6.8045e-05,-9.05e-06,0.0,0 STARLINK-3101,1 49168U 21082AQ  23151.54355678 -.00000905  00000-0 -68045-4 0  9999,2 49168  69.9987 308.9436 0003445 271.5033  88.5731 14.98342205 95912,6950.155,96.106,574.414,569.626,0.0
49168.0,STARLINK-3101,PAYLOAD,2023-05-31 19:27:15,14.98344215,0.0003401,69.9987,308.2708,269.4122,90.6647,-5.0423e-05,-6.95e-06,0.0,0 STARLINK-3101,1 49168U 21082AQ  23151.81059217 -.00000695  00000-0 -50423-4 0  9996,2 49168  69.9987 308.2708 0003401 269.4122  90.6647 14.98344215 95951,6950.149,96.106,574.378,569.65,0.0
49168.0,STARLINK-3101,PAYLOAD,2023-06-01 09:52:28,14.98333084,0.00032,69.9992,306.7552,272.0833,87.9959,-1.7171e-05,-2.98e-06,0.0,0 STARLINK-3101,1 49168U 21082AQ  23152.41143539 -.00000298  00000-0 -17171-4 0  9996,2 49168  69.9992 306.7552 0003200 272.0833  87.9959 14.98333084 96041,6950.183,96.107,574.272,569.824,0.0
49168.0,STARLINK-3101,PAYLOAD,2023-06-01 13:04:44,14.98332235,0.0003258,69.999,306.4187,270.9686,89.11,-3.4473e-05,-5.04e-06,0.0,0 STARLINK-3101,1 49168U 21082AQ  23152.54495594 -.00000504  00000-0 -34473-4 0  9995,2 49168  69.9990 306.4187 0003258 270.9686  89.1100 14.98332235 96067,6950.186,96.107,574.315,569.787,0.0
49168.0,STARLINK-3101,PAYLOAD,2023-06-02 13:06:45,14.98328955,0.0003314,69.9988,303.8938,271.5419,88.536,-2.9499e-05,-4.45e-06,0.0,0 STARLINK-3101,1 49168U 21082AQ  23153.54635673 -.00000445  00000-0 -29499-4 0  9996,2 49168  69.9988 303.8938 0003314 271.5419  88.5360 14.98328955 96215,6950.196,96.107,574.364,569.758,0.0
49168.0,STARLINK-3101,PAYLOAD,2023-06-02 17:55:09,14.98329135,0.0003384,69.9989,303.3891,270.9338,89.1433,-2.602e-05,-4.04e-06,0.0,0 STARLINK-3101,1 49168U 21082AQ  23153.74663634 -.00000404  00000-0 -26020-4 0  9998,2 49168  69.9989 303.3891 0003384 270.9338  89.1433 14.98329135 96241,6950.196,96.107,574.413,569.709,0.0
49168.0,STARLINK-3101,PAYLOAD,2023-06-03 13:08:46,14.98324824,0.0003496,69.9984,301.3682,270.6759,89.3999,4.3289e-05,4.23e-06,0.0,0 STARLINK-3101,1 49168U 21082AQ  23154.54775810  .00000423  00000-0  43289-4 0  9992,2 49168  69.9984 301.3682 0003496 270.6759  89.3999 14.98324824 96362,6950.209,96.107,574.504,569.644,0.0
49168.0,STARLINK-3101,PAYLOAD,2023-06-03 17:57:10,14.98328276,0.0003501,69.9985,300.863,270.3495,89.7263,3.9835e-05,3.82e-06,0.0,0 STARLINK-3101,1 49168U 21082AQ  23154.74803635  .00000382  00000-0  39835-4 0  9997,2 49168  69.9985 300.8630 0003501 270.3495  89.7263 14.98328276 96397,6950.198,96.107,574.496,569.63,0.0
49168.0,STARLINK-3101,PAYLOAD,2023-06-03 19:33:18,14.9832885,0.0003499,69.9985,300.6946,270.3581,89.7177,4.548e-05,4.5e-06,0.0,0 STARLINK-3101,1 49168U 21082AQ  23154.81479596  .00000450  00000-0  45480-4 0  9999,2 49168  69.9985 300.6946 0003499 270.3581  89.7177 14.98328850 96401,6950.196,96.107,574.493,569.63,0.0
49168.0,STARLINK-3101,PAYLOAD,2023-06-04 13:10:46,14.98329229,0.0003555,69.9985,298.843,270.2001,89.8751,0.00010092,1.111e-05,0.0,0 STARLINK-3101,1 49168U 21082AQ  23155.54915460  .00001111  00000-0  10092-3 0  9990,2 49168  69.9985 298.8430 0003555 270.2001  89.8751 14.98329229 96518,6950.195,96.107,574.531,569.589,0.0
49168.0,STARLINK-3101,PAYLOAD,2023-06-04 19:35:18,14.98334995,0.0003543,69.9986,298.1697,270.1479,89.9274,0.00011676,1.301e-05,0.0,0 STARLINK-3101,1 49168U 21082AQ  23155.81619032  .00001301  00000-0  11676-3 0  9996,2 49168  69.9986 298.1697 0003543 270.1479  89.9274 14.98334995 96553,6950.177,96.107,574.505,569.58,0.0
49168.0,STARLINK-3101,PAYLOAD,2023-06-05 10:00:31,14.98328086,0.0003438,69.9988,296.6545,270.2362,89.8403,3.8338e-05,3.64e-06,0.0,0 STARLINK-3101,1 49168U 21082AQ  23156.41703656  .00000364  00000-0  38338-4 0  9992,2 49168  69.9988 296.6545 0003438 270.2362  89.8403 14.98328086 96642,6950.199,96.107,574.453,569.674,0.0
49168.0,STARLINK-3101,PAYLOAD,2023-06-05 13:12:48,14.98327605,0.000345,69.9988,296.3178,270.1721,89.9043,3.2946e-05,3e-06,0.0,0 STARLINK-3101,1 49168U 21082AQ  23156.55055724  .00000300  00000-0  32946-4 0  9992,2 49168  69.9988 296.3178 0003450 270.1721  89.9043 14.98327605 96662,6950.2,96.107,574.463,569.667,0.0
49168.0,STARLINK-3101,PAYLOAD,2023-06-05 19:37:20,14.98332529,0.0003441,69.9988,295.6445,270.0862,89.9903,6.3501e-05,6.65e-06,0.0,0 STARLINK-3101,1 49168U 21082AQ  23156.81759321  .00000665  00000-0  63501-4 0  9990,2 49168  69.9988 295.6445 0003441 270.0862  89.9903 14.98332529 96707,6950.185,96.107,574.442,569.659,0.0
49168.0,STARLINK-3101,PAYLOAD,2023-06-06 11:38:40,14.98336253,0.000337,69.999,293.9612,269.4863,90.591,1.521e-05,8.8e-07,0.0,0 STARLINK-3101,1 49168U 21082AQ  23157.48519109  .00000088  00000-0  15210-4 0  9995,2 49168  69.9990 293.9612 0003370 269.4863  90.5910 14.98336253 96806,6950.174,96.107,574.381,569.696,0.0
49168.0,STARLINK-3101,PAYLOAD,2023-06-06 16:27:04,14.98337864,0.0003362,69.9993,293.4567,266.3145,93.7629,4.7778e-05,4.77e-06,0.0,0 STARLINK-3101,1 49168U 21082AQ  23157.68546805  .00000477  00000-0  47778-4 0  9996,2 49168  69.9993 293.4567 0003362 266.3145  93.7629 14.98337864 96837,6950.169,96.106,574.37,569.697,0.0
49168.0,STARLINK-3101,PAYLOAD,2023-06-06 18:03:12,14.98338724,0.0003382,69.9993,293.2884,267.1514,92.9258,5.526e-05,5.67e-06,0.0,0 STARLINK-3101,1 49168U 21082AQ  23157.75222719  .00000567  00000-0  55260-4 0  9994,2 49168  69.9993 293.2884 0003382 267.1514  92.9258 14.98338724 96844,6950.166,96.106,574.381,569.68,0.0
49168.0,STARLINK-3101,PAYLOAD,2023-06-07 08:28:25,14.98327104,0.0003346,69.9993,291.7734,267.7282,92.3494,3.2018e-06,-5.5e-07,0.0,0 STARLINK-3101,1 49168U 21082AQ  23158.35307493 -.00000055  00000-0  32018-5 0  9994,2 49168  69.9993 291.7734 0003346 267.7282  92.3494 14.98327104 96935,6950.202,96.107,574.392,569.741,0.0
49168.0,STARLINK-3101,PAYLOAD,2023-06-07 19:41:22,14.98328935,0.0003359,69.9993,290.595,268.4368,91.6406,2.049e-05,1.51e-06,0.0,0 STARLINK-3101,1 49168U 21082AQ  23158.82039392  .00000151  00000-0  20490-4 0  9992,2 49168  69.9993 290.5950 0003359 268.4368  91.6406 14.98328935 97006,6950.196,96.107,574.396,569.727,0.0
49168.0,STARLINK-3101,PAYLOAD,2023-06-08 08:30:26,14.98325193,0.0003514,69.999,289.2481,270.8533,89.2223,0.00010534,1.164e-05,0.0,0 STARLINK-3101,1 49168U 21082AQ  23159.35447392  .00001164  00000-0  10534-3 0  9996,2 49168  69.9990 289.2481 0003514 270.8533  89.2223 14.98325193 97082,6950.208,96.107,574.515,569.63,0.0
